[Satellite]
VERSION=1.1
NAME=GPS BIII-4  (PRN 14)
NICKNAME=GPS BIII-4  (PRN 14)
TLE1=1 46826U 20078A   22342.18764718 -.00000017  00000+0  00000+0 0  9995
TLE2=2 46826  54.4590 263.0432 0024797 190.1680 352.6778  2.00565194 15690
STATUS=0
